SHIYAN-30 04            
1 68140U 26048B   26078.27686668  .00001387  00000+0  13801-3 0  9995
2 68140  34.9913  86.5979 0002517 289.3057  70.7376 14.91684234   937
CZ-2D R/B               
1 68141U 26048C   26078.32976338  .00001474  00000+0  13302-3 0  9991
2 68141  35.1294  86.3066 0015081  48.5346 311.6655 14.95530305   945
YAOGAN-50 02            
1 68196U 26051A   26077.93294435  .00000251  00000+0  28233-4 0  9994
2 68196 142.0020 251.2874 0111346 144.6866 216.1286 14.07926266   482
CZ-6A R/B               
1 68197U 26051B   26078.31487576  .00001466  00000+0  20388-3 0  9999
2 68197 142.0313 254.5941 0185685 119.2048 242.7393 14.56357536   561
2026-052A               
1 68198U 26052A   26078.26641084  .00005260  00000+0  32859-3 0  9993
2 68198  97.5388 154.4689 0012303 253.8224 106.1651 15.09832376   471
2026-052B               
1 68199U 26052B   26078.26607356  .00001968  00000+0  12495-3 0  9993
2 68199  97.5386 154.4685 0011553 255.5479 104.4469 15.09987879   470
2026-052C               
1 68200U 26052C   26077.80196058  .00004315  00000+0  26819-3 0  9991
2 68200  97.5386 154.0133 0011326 260.7936  99.2013 15.10132242   396
2026-052D               
1 68201U 26052D   26078.26551211  .00004855  00000+0  30008-3 0  9993
2 68201  97.5388 154.4673 0010315 254.3964 105.6127 15.10276306   476
2026-052E               
1 68202U 26052E   26078.26550139  .00005330  00000+0  32901-3 0  9995
2 68202  97.5392 154.4683 0010202 258.7683 101.2400 15.10281330   473
2026-052F               
1 68203U 26052F   26078.26499627  .00005335  00000+0  32714-3 0  9997
2 68203  97.5382 154.4741 0009394 250.5443 109.4772 15.10533363   470
2026-052G               
1 68204U 26052G   26078.26489439  .00004981  00000+0  30528-3 0  9995
2 68204  97.5390 154.4684 0009037 253.7745 106.2490 15.10582352   474
KZ-11 R/B               
1 68205U 26052H   26078.28732972  .00022932  17344-5  34257-3 0  9995
2 68205  97.3432 154.5578 0549405   2.9655 357.4590 14.66621608   463
TEN-KOH 2               
1 68261U 25241B   26077.87414291  .00007938  00000+0  35116-3 0  9990
2 68261  51.6342  29.1833 0004488 186.7062 173.3856 15.22548355  1145
