[{"OBJECT_NAME":"SHIYAN-30 04","OBJECT_ID":"2026-048B","EPOCH":"2026-03-19T06:38:41.281152","MEAN_MOTION":14.91684234,"ECCENTRICITY":0.00025174,"INCLINATION":34.9913,"RA_OF_ASC_NODE":86.5979,"ARG_OF_PERICENTER":289.3057,"MEAN_ANOMALY":70.7376,"EPHEMERIS_TYPE":0,"CLASSIFICATION_TYPE":"U","NORAD_CAT_ID":68140,"ELEMENT_SET_NO":999,"REV_AT_EPOCH":93,"BSTAR":0.0001380054,"MEAN_MOTION_DOT":1.387e-5,"MEAN_MOTION_DDOT":0},{"OBJECT_NAME":"CZ-2D R/B","OBJECT_ID":"2026-048C","EPOCH":"2026-03-19T07:54:51.556032","MEAN_MOTION":14.95530305,"ECCENTRICITY":0.00150811,"INCLINATION":35.1294,"RA_OF_ASC_NODE":86.3066,"ARG_OF_PERICENTER":48.5346,"MEAN_ANOMALY":311.6655,"EPHEMERIS_TYPE":0,"CLASSIFICATION_TYPE":"U","NORAD_CAT_ID":68141,"ELEMENT_SET_NO":999,"REV_AT_EPOCH":94,"BSTAR":0.00013301751,"MEAN_MOTION_DOT":1.474e-5,"MEAN_MOTION_DDOT":0},{"OBJECT_NAME":"YAOGAN-50 02","OBJECT_ID":"2026-051A","EPOCH":"2026-03-18T22:23:26.391840","MEAN_MOTION":14.07926266,"ECCENTRICITY":0.01113466,"INCLINATION":142.002,"RA_OF_ASC_NODE":251.2874,"ARG_OF_PERICENTER":144.6866,"MEAN_ANOMALY":216.1286,"EPHEMERIS_TYPE":0,"CLASSIFICATION_TYPE":"U","NORAD_CAT_ID":68196,"ELEMENT_SET_NO":999,"REV_AT_EPOCH":48,"BSTAR":2.8233468e-5,"MEAN_MOTION_DOT":2.51e-6,"MEAN_MOTION_DDOT":0},{"OBJECT_NAME":"CZ-6A R/B","OBJECT_ID":"2026-051B","EPOCH":"2026-03-19T07:33:25.265664","MEAN_MOTION":14.56357536,"ECCENTRICITY":0.01856858,"INCLINATION":142.0313,"RA_OF_ASC_NODE":254.5941,"ARG_OF_PERICENTER":119.2048,"MEAN_ANOMALY":242.7393,"EPHEMERIS_TYPE":0,"CLASSIFICATION_TYPE":"U","NORAD_CAT_ID":68197,"ELEMENT_SET_NO":999,"REV_AT_EPOCH":56,"BSTAR":0.00020387925,"MEAN_MOTION_DOT":1.466e-5,"MEAN_MOTION_DDOT":0},{"OBJECT_NAME":"2026-052A","OBJECT_ID":"2026-052A","EPOCH":"2026-03-19T06:23:37.896576","MEAN_MOTION":15.09832376,"ECCENTRICITY":0.00123039,"INCLINATION":97.5388,"RA_OF_ASC_NODE":154.4689,"ARG_OF_PERICENTER":253.8224,"MEAN_ANOMALY":106.1651,"EPHEMERIS_TYPE":0,"CLASSIFICATION_TYPE":"U","NORAD_CAT_ID":68198,"ELEMENT_SET_NO":999,"REV_AT_EPOCH":47,"BSTAR":0.00032859283,"MEAN_MOTION_DOT":5.26e-5,"MEAN_MOTION_DDOT":0},{"OBJECT_NAME":"2026-052B","OBJECT_ID":"2026-052B","EPOCH":"2026-03-19T06:23:08.755584","MEAN_MOTION":15.09987879,"ECCENTRICITY":0.0011553,"INCLINATION":97.5386,"RA_OF_ASC_NODE":154.4685,"ARG_OF_PERICENTER":255.5479,"MEAN_ANOMALY":104.4469,"EPHEMERIS_TYPE":0,"CLASSIFICATION_TYPE":"U","NORAD_CAT_ID":68199,"ELEMENT_SET_NO":999,"REV_AT_EPOCH":47,"BSTAR":0.00012495325,"MEAN_MOTION_DOT":1.968e-5,"MEAN_MOTION_DDOT":0},{"OBJECT_NAME":"2026-052C","OBJECT_ID":"2026-052C","EPOCH":"2026-03-18T19:14:49.394112","MEAN_MOTION":15.10132242,"ECCENTRICITY":0.00113265,"INCLINATION":97.5386,"RA_OF_ASC_NODE":154.0133,"ARG_OF_PERICENTER":260.7936,"MEAN_ANOMALY":99.2013,"EPHEMERIS_TYPE":0,"CLASSIFICATION_TYPE":"U","NORAD_CAT_ID":68200,"ELEMENT_SET_NO":999,"REV_AT_EPOCH":39,"BSTAR":0.00026818945,"MEAN_MOTION_DOT":4.315e-5,"MEAN_MOTION_DDOT":0},{"OBJECT_NAME":"2026-052D","OBJECT_ID":"2026-052D","EPOCH":"2026-03-19T06:22:20.246304","MEAN_MOTION":15.10276306,"ECCENTRICITY":0.00103159,"INCLINATION":97.5388,"RA_OF_ASC_NODE":154.4673,"ARG_OF_PERICENTER":254.3964,"MEAN_ANOMALY":105.6127,"EPHEMERIS_TYPE":0,"CLASSIFICATION_TYPE":"U","NORAD_CAT_ID":68201,"ELEMENT_SET_NO":999,"REV_AT_EPOCH":47,"BSTAR":0.00030008358,"MEAN_MOTION_DOT":4.855e-5,"MEAN_MOTION_DDOT":0},{"OBJECT_NAME":"2026-052E","OBJECT_ID":"2026-052E","EPOCH":"2026-03-19T06:22:19.320096","MEAN_MOTION":15.1028133,"ECCENTRICITY":0.0010202,"INCLINATION":97.5392,"RA_OF_ASC_NODE":154.4683,"ARG_OF_PERICENTER":258.7683,"MEAN_ANOMALY":101.24,"EPHEMERIS_TYPE":0,"CLASSIFICATION_TYPE":"U","NORAD_CAT_ID":68202,"ELEMENT_SET_NO":999,"REV_AT_EPOCH":47,"BSTAR":0.00032900794,"MEAN_MOTION_DOT":5.33e-5,"MEAN_MOTION_DDOT":0},{"OBJECT_NAME":"2026-052F","OBJECT_ID":"2026-052F","EPOCH":"2026-03-19T06:21:35.677728","MEAN_MOTION":15.10533363,"ECCENTRICITY":0.00093946,"INCLINATION":97.5382,"RA_OF_ASC_NODE":154.4741,"ARG_OF_PERICENTER":250.5443,"MEAN_ANOMALY":109.4772,"EPHEMERIS_TYPE":0,"CLASSIFICATION_TYPE":"U","NORAD_CAT_ID":68203,"ELEMENT_SET_NO":999,"REV_AT_EPOCH":47,"BSTAR":0.00032714249,"MEAN_MOTION_DOT":5.335e-5,"MEAN_MOTION_DDOT":0},{"OBJECT_NAME":"2026-052G","OBJECT_ID":"2026-052G","EPOCH":"2026-03-19T06:21:26.875296","MEAN_MOTION":15.10582352,"ECCENTRICITY":0.00090375,"INCLINATION":97.539,"RA_OF_ASC_NODE":154.4684,"ARG_OF_PERICENTER":253.7745,"MEAN_ANOMALY":106.249,"EPHEMERIS_TYPE":0,"CLASSIFICATION_TYPE":"U","NORAD_CAT_ID":68204,"ELEMENT_SET_NO":999,"REV_AT_EPOCH":47,"BSTAR":0.00030527614,"MEAN_MOTION_DOT":4.981e-5,"MEAN_MOTION_DDOT":0},{"OBJECT_NAME":"KZ-11 R/B","OBJECT_ID":"2026-052H","EPOCH":"2026-03-19T06:53:45.287808","MEAN_MOTION":14.66621608,"ECCENTRICITY":0.05494056,"INCLINATION":97.3432,"RA_OF_ASC_NODE":154.5578,"ARG_OF_PERICENTER":2.9655,"MEAN_ANOMALY":357.459,"EPHEMERIS_TYPE":0,"CLASSIFICATION_TYPE":"U","NORAD_CAT_ID":68205,"ELEMENT_SET_NO":999,"REV_AT_EPOCH":46,"BSTAR":0.00034256925,"MEAN_MOTION_DOT":0.00022932,"MEAN_MOTION_DDOT":1.734383e-6},{"OBJECT_NAME":"TEN-KOH 2","OBJECT_ID":"2025-241B","EPOCH":"2026-03-18T20:58:45.947424","MEAN_MOTION":15.22548355,"ECCENTRICITY":0.00044883,"INCLINATION":51.6342,"RA_OF_ASC_NODE":29.1833,"ARG_OF_PERICENTER":186.7062,"MEAN_ANOMALY":173.3856,"EPHEMERIS_TYPE":0,"CLASSIFICATION_TYPE":"U","NORAD_CAT_ID":68261,"ELEMENT_SET_NO":999,"REV_AT_EPOCH":114,"BSTAR":0.00035116129,"MEAN_MOTION_DOT":7.938e-5,"MEAN_MOTION_DDOT":0}]
